PLEIADES NEO 3          
1 48268U 21034A   26065.26613626 -.00000560  00000+0 -64529-4 0  9991
2 48268  97.8934 141.5101 0001301  91.7574 268.3788 14.81671821262417
PLEIADES NEO 4          
1 49070U 21073E   26065.29989190  .00000064  00000+0  14752-4 0  9991
2 49070  97.8933 141.5391 0001328  92.4704 267.6661 14.81672828246132
LANDSAT 9               
1 49260U 21088A   26065.19274861  .00000476  00000+0  11558-3 0  9996
2 49260  98.1945 137.0354 0001103  90.7131 269.4194 14.57120928236003
CSG-2                   
1 51444U 22008A   26065.26655358  .00000644  00000+0  87417-4 0  9993
2 51444  97.8854 250.3512 0001370  79.9954 280.1414 14.82154233221348
GAOFEN-12 03            
1 52912U 22069A   26065.28394866  .00001134  00000+0  15717-3 0  9995
2 52912  97.8417 315.6860 0002198  94.3893 265.7571 14.79842531199390
SWOT                    
1 54754U 22173A   26065.30851436  .00000059  00000+0  41743-4 0  9995
2 54754  77.6119 174.1842 0000528 266.9352  93.1739 14.00168956164758
GAOFEN-12 04            
1 57654U 23123A   26065.31288986  .00001843  00000+0  25048-3 0  9999
2 57654  97.9131 344.8249 0001679  76.7718 283.3681 14.79991951137414
PARS 1                  
1 59065U 24039Q   26065.30878965  .00015014  00000+0  33804-3 0  9999
2 59065  97.4752  43.2175 0011842 120.3658 239.8762 15.43315984112761
RESURS-P 4              
1 59371U 24061A   26065.28601074  .00005114  00000+0  16341-3 0  9993
2 59371  97.2656  15.0049 0002631  62.8012 297.3498 15.32890155108002
LEGION 1                
1 59625U 24081A   26065.24038693  .00005985  00000+0  30211-3 0  9992
2 59625  97.5076 144.1680 0005354  31.2692 328.8859 15.17470570101931
LEGION 2                
1 59626U 24081B   26065.21114758  .00005584  00000+0  28954-3 0  9993
2 59626  97.5078 144.2209 0010505 357.7638   2.3546 15.16522402101930
ALOS-4 (DAICHI-4)       
1 60182U 24123A   26065.28895598  .00000736  00000+0  10541-3 0  9991
2 60182  97.9196 163.9379 0001466 101.8168 258.3208 14.79467065 90668
LEGION 3                
1 60452U 24146A   26065.25118492  .00006656  00000+0  35227-3 0  9999
2 60452  45.0006 222.3556 0013738 301.5895  58.3642 15.16104093 86408
LEGION 4                
1 60453U 24146B   26065.18356962  .00006094  00000+0  32353-3 0  9991
2 60453  45.0033 314.5698 0009385  82.5467 277.6478 15.16159534 85248
SENTINEL-2C             
1 60989U 24157A   26065.16556049  .00000159  00000+0  77165-4 0  9990
2 60989  98.5682 141.4257 0000733  97.6115 262.5151 14.30812581 78255
IONOSFERA-M 1           
1 61735U 24199A   26065.30626777  .00000083  00000+0  56533-4 0  9990
2 61735  98.7332 299.4802 0002103  80.7806 279.3610 14.22734534113070
IONOSFERA-M 2           
1 61736U 24199B   26065.27044686  .00000094  00000+0  61803-4 0  9998
2 61736  98.7330 299.3563 0000215  92.2889 267.8314 14.22737026116191
