[{"OBJECT_NAME":"PLEIADES NEO 3","OBJECT_ID":"2021-034A","EPOCH":"2026-03-06T06:23:14.172864","MEAN_MOTION":14.81671821,"ECCENTRICITY":0.00013012,"INCLINATION":97.8934,"RA_OF_ASC_NODE":141.5101,"ARG_OF_PERICENTER":91.7574,"MEAN_ANOMALY":268.3788,"EPHEMERIS_TYPE":0,"CLASSIFICATION_TYPE":"U","NORAD_CAT_ID":48268,"ELEMENT_SET_NO":999,"REV_AT_EPOCH":26241,"BSTAR":-6.4528931e-5,"MEAN_MOTION_DOT":-5.6e-6,"MEAN_MOTION_DDOT":0},{"OBJECT_NAME":"PLEIADES NEO 4","OBJECT_ID":"2021-073E","EPOCH":"2026-03-06T07:11:50.660160","MEAN_MOTION":14.81672828,"ECCENTRICITY":0.00013283,"INCLINATION":97.8933,"RA_OF_ASC_NODE":141.5391,"ARG_OF_PERICENTER":92.4704,"MEAN_ANOMALY":267.6661,"EPHEMERIS_TYPE":0,"CLASSIFICATION_TYPE":"U","NORAD_CAT_ID":49070,"ELEMENT_SET_NO":999,"REV_AT_EPOCH":24613,"BSTAR":1.4752299e-5,"MEAN_MOTION_DOT":6.4e-7,"MEAN_MOTION_DDOT":0},{"OBJECT_NAME":"LANDSAT 9","OBJECT_ID":"2021-088A","EPOCH":"2026-03-06T04:37:33.479904","MEAN_MOTION":14.57120928,"ECCENTRICITY":0.0001103,"INCLINATION":98.1945,"RA_OF_ASC_NODE":137.0354,"ARG_OF_PERICENTER":90.7131,"MEAN_ANOMALY":269.4194,"EPHEMERIS_TYPE":0,"CLASSIFICATION_TYPE":"U","NORAD_CAT_ID":49260,"ELEMENT_SET_NO":999,"REV_AT_EPOCH":23600,"BSTAR":0.0001155759,"MEAN_MOTION_DOT":4.76e-6,"MEAN_MOTION_DDOT":0},{"OBJECT_NAME":"CSG-2","OBJECT_ID":"2022-008A","EPOCH":"2026-03-06T06:23:50.229312","MEAN_MOTION":14.82154233,"ECCENTRICITY":0.00013702,"INCLINATION":97.8854,"RA_OF_ASC_NODE":250.3512,"ARG_OF_PERICENTER":79.9954,"MEAN_ANOMALY":280.1414,"EPHEMERIS_TYPE":0,"CLASSIFICATION_TYPE":"U","NORAD_CAT_ID":51444,"ELEMENT_SET_NO":999,"REV_AT_EPOCH":22134,"BSTAR":8.7417374e-5,"MEAN_MOTION_DOT":6.44e-6,"MEAN_MOTION_DDOT":0},{"OBJECT_NAME":"GAOFEN-12 03","OBJECT_ID":"2022-069A","EPOCH":"2026-03-06T06:48:53.164224","MEAN_MOTION":14.79842531,"ECCENTRICITY":0.0002198,"INCLINATION":97.8417,"RA_OF_ASC_NODE":315.686,"ARG_OF_PERICENTER":94.3893,"MEAN_ANOMALY":265.7571,"EPHEMERIS_TYPE":0,"CLASSIFICATION_TYPE":"U","NORAD_CAT_ID":52912,"ELEMENT_SET_NO":999,"REV_AT_EPOCH":19939,"BSTAR":0.00015716566,"MEAN_MOTION_DOT":1.134e-5,"MEAN_MOTION_DDOT":0},{"OBJECT_NAME":"SWOT","OBJECT_ID":"2022-173A","EPOCH":"2026-03-06T07:24:15.640704","MEAN_MOTION":14.00168956,"ECCENTRICITY":5.284e-5,"INCLINATION":77.6119,"RA_OF_ASC_NODE":174.1842,"ARG_OF_PERICENTER":266.9352,"MEAN_ANOMALY":93.1739,"EPHEMERIS_TYPE":0,"CLASSIFICATION_TYPE":"U","NORAD_CAT_ID":54754,"ELEMENT_SET_NO":999,"REV_AT_EPOCH":16475,"BSTAR":4.1742574e-5,"MEAN_MOTION_DOT":5.9e-7,"MEAN_MOTION_DDOT":0},{"OBJECT_NAME":"GAOFEN-12 04","OBJECT_ID":"2023-123A","EPOCH":"2026-03-06T07:30:33.683904","MEAN_MOTION":14.79991951,"ECCENTRICITY":0.00016796,"INCLINATION":97.9131,"RA_OF_ASC_NODE":344.8249,"ARG_OF_PERICENTER":76.7718,"MEAN_ANOMALY":283.3681,"EPHEMERIS_TYPE":0,"CLASSIFICATION_TYPE":"U","NORAD_CAT_ID":57654,"ELEMENT_SET_NO":999,"REV_AT_EPOCH":13741,"BSTAR":0.00025047991,"MEAN_MOTION_DOT":1.843e-5,"MEAN_MOTION_DDOT":0},{"OBJECT_NAME":"PARS 1","OBJECT_ID":"2024-039Q","EPOCH":"2026-03-06T07:24:39.425760","MEAN_MOTION":15.43315984,"ECCENTRICITY":0.00118422,"INCLINATION":97.4752,"RA_OF_ASC_NODE":43.2175,"ARG_OF_PERICENTER":120.3658,"MEAN_ANOMALY":239.8762,"EPHEMERIS_TYPE":0,"CLASSIFICATION_TYPE":"U","NORAD_CAT_ID":59065,"ELEMENT_SET_NO":999,"REV_AT_EPOCH":11276,"BSTAR":0.00033803943,"MEAN_MOTION_DOT":0.00015014,"MEAN_MOTION_DDOT":0},{"OBJECT_NAME":"RESURS-P 4","OBJECT_ID":"2024-061A","EPOCH":"2026-03-06T06:51:51.327936","MEAN_MOTION":15.32890155,"ECCENTRICITY":0.00026312,"INCLINATION":97.2656,"RA_OF_ASC_NODE":15.0049,"ARG_OF_PERICENTER":62.8012,"MEAN_ANOMALY":297.3498,"EPHEMERIS_TYPE":0,"CLASSIFICATION_TYPE":"U","NORAD_CAT_ID":59371,"ELEMENT_SET_NO":999,"REV_AT_EPOCH":10800,"BSTAR":0.00016341219,"MEAN_MOTION_DOT":5.114e-5,"MEAN_MOTION_DDOT":0},{"OBJECT_NAME":"LEGION 1","OBJECT_ID":"2024-081A","EPOCH":"2026-03-06T05:46:09.430752","MEAN_MOTION":15.1747057,"ECCENTRICITY":0.00053541,"INCLINATION":97.5076,"RA_OF_ASC_NODE":144.168,"ARG_OF_PERICENTER":31.2692,"MEAN_ANOMALY":328.8859,"EPHEMERIS_TYPE":0,"CLASSIFICATION_TYPE":"U","NORAD_CAT_ID":59625,"ELEMENT_SET_NO":999,"REV_AT_EPOCH":10193,"BSTAR":0.00030210968,"MEAN_MOTION_DOT":5.985e-5,"MEAN_MOTION_DDOT":0},{"OBJECT_NAME":"LEGION 2","OBJECT_ID":"2024-081B","EPOCH":"2026-03-06T05:04:03.150912","MEAN_MOTION":15.16522402,"ECCENTRICITY":0.00105057,"INCLINATION":97.5078,"RA_OF_ASC_NODE":144.2209,"ARG_OF_PERICENTER":357.7638,"MEAN_ANOMALY":2.3546,"EPHEMERIS_TYPE":0,"CLASSIFICATION_TYPE":"U","NORAD_CAT_ID":59626,"ELEMENT_SET_NO":999,"REV_AT_EPOCH":10193,"BSTAR":0.00028953676,"MEAN_MOTION_DOT":5.584e-5,"MEAN_MOTION_DDOT":0},{"OBJECT_NAME":"ALOS-4 (DAICHI-4)","OBJECT_ID":"2024-123A","EPOCH":"2026-03-06T06:56:05.796672","MEAN_MOTION":14.79467065,"ECCENTRICITY":0.00014663,"INCLINATION":97.9196,"RA_OF_ASC_NODE":163.9379,"ARG_OF_PERICENTER":101.8168,"MEAN_ANOMALY":258.3208,"EPHEMERIS_TYPE":0,"CLASSIFICATION_TYPE":"U","NORAD_CAT_ID":60182,"ELEMENT_SET_NO":999,"REV_AT_EPOCH":9066,"BSTAR":0.00010541187,"MEAN_MOTION_DOT":7.36e-6,"MEAN_MOTION_DDOT":0},{"OBJECT_NAME":"LEGION 3","OBJECT_ID":"2024-146A","EPOCH":"2026-03-06T06:01:42.377088","MEAN_MOTION":15.16104093,"ECCENTRICITY":0.00137387,"INCLINATION":45.0006,"RA_OF_ASC_NODE":222.3556,"ARG_OF_PERICENTER":301.5895,"MEAN_ANOMALY":58.3642,"EPHEMERIS_TYPE":0,"CLASSIFICATION_TYPE":"U","NORAD_CAT_ID":60452,"ELEMENT_SET_NO":999,"REV_AT_EPOCH":8640,"BSTAR":0.00035227099,"MEAN_MOTION_DOT":6.656e-5,"MEAN_MOTION_DDOT":0},{"OBJECT_NAME":"LEGION 4","OBJECT_ID":"2024-146B","EPOCH":"2026-03-06T04:24:20.415168","MEAN_MOTION":15.16159534,"ECCENTRICITY":0.0009385,"INCLINATION":45.0033,"RA_OF_ASC_NODE":314.5698,"ARG_OF_PERICENTER":82.5467,"MEAN_ANOMALY":277.6478,"EPHEMERIS_TYPE":0,"CLASSIFICATION_TYPE":"U","NORAD_CAT_ID":60453,"ELEMENT_SET_NO":999,"REV_AT_EPOCH":8524,"BSTAR":0.00032353232,"MEAN_MOTION_DOT":6.094e-5,"MEAN_MOTION_DDOT":0},{"OBJECT_NAME":"SENTINEL-2C","OBJECT_ID":"2024-157A","EPOCH":"2026-03-06T03:58:24.426336","MEAN_MOTION":14.30812581,"ECCENTRICITY":7.333e-5,"INCLINATION":98.5682,"RA_OF_ASC_NODE":141.4257,"ARG_OF_PERICENTER":97.6115,"MEAN_ANOMALY":262.5151,"EPHEMERIS_TYPE":0,"CLASSIFICATION_TYPE":"U","NORAD_CAT_ID":60989,"ELEMENT_SET_NO":999,"REV_AT_EPOCH":7825,"BSTAR":7.7165141e-5,"MEAN_MOTION_DOT":1.59e-6,"MEAN_MOTION_DDOT":0},{"OBJECT_NAME":"IONOSFERA-M 1","OBJECT_ID":"2024-199A","EPOCH":"2026-03-06T07:21:01.535328","MEAN_MOTION":14.22734534,"ECCENTRICITY":0.00021038,"INCLINATION":98.7332,"RA_OF_ASC_NODE":299.4802,"ARG_OF_PERICENTER":80.7806,"MEAN_ANOMALY":279.361,"EPHEMERIS_TYPE":0,"CLASSIFICATION_TYPE":"U","NORAD_CAT_ID":61735,"ELEMENT_SET_NO":999,"REV_AT_EPOCH":11307,"BSTAR":5.6532595e-5,"MEAN_MOTION_DOT":8.3e-7,"MEAN_MOTION_DDOT":0},{"OBJECT_NAME":"IONOSFERA-M 2","OBJECT_ID":"2024-199B","EPOCH":"2026-03-06T06:29:26.608704","MEAN_MOTION":14.22737026,"ECCENTRICITY":2.153e-5,"INCLINATION":98.733,"RA_OF_ASC_NODE":299.3563,"ARG_OF_PERICENTER":92.2889,"MEAN_ANOMALY":267.8314,"EPHEMERIS_TYPE":0,"CLASSIFICATION_TYPE":"U","NORAD_CAT_ID":61736,"ELEMENT_SET_NO":999,"REV_AT_EPOCH":11619,"BSTAR":6.1803229e-5,"MEAN_MOTION_DOT":9.4e-7,"MEAN_MOTION_DDOT":0}]
